STARLINK-1625
1 16131C 20057Q   21326.13075552  .00000866  00000-0  58001-4 0  3263
2 16131  53.0524 138.1615 0001802  84.6848 307.0615 15.06404750    15
